OBJECT_NAME,OBJECT_ID,EPOCH,MEAN_MOTION,ECCENTRICITY,INCLINATION,RA_OF_ASC_NODE,ARG_OF_PERICENTER,MEAN_ANOMALY,EPHEMERIS_TYPE,CLASSIFICATION_TYPE,NORAD_CAT_ID,ELEMENT_SET_NO,REV_AT_EPOCH,BSTAR,MEAN_MOTION_DOT,MEAN_MOTION_DDOT
STARLINK-4383,2022-099J,2022-08-29T16:00:00.999936,15.65594805,.0001794,97.6560,0.4684,56.2621,13.5404,0,U,53473,999,288,-.1359E-1,-.1224706E-1,0
STARLINK-4445,2022-099K,2022-08-29T16:00:00.999936,15.65609134,.0001841,97.6557,0.4674,57.7227,14.6565,0,U,53474,999,288,-.13366E-1,-.1207137E-1,0
STARLINK-4389,2022-099L,2022-08-29T16:00:00.999936,15.65604263,.0001749,97.6559,0.4684,60.6099,9.8347,0,U,53475,999,288,-.13638E-1,-.1229001E-1,0
STARLINK-4378,2022-099M,2022-08-29T16:00:00.999936,15.65579074,.0001617,97.6561,0.4681,69.3254,359.1937,0,U,53476,999,288,-.13586E-1,-.1223609E-1,0
STARLINK-4412,2022-099N,2022-08-29T16:00:00.999936,15.65596997,.0001853,97.6559,0.4682,61.9753,9.7644,0,U,53477,999,288,-.13292E-1,-.1200581E-1,0
STARLINK-4433,2022-099P,2022-08-29T16:00:00.999936,15.65590124,.0001723,97.6559,0.4683,67.2381,1.9217,0,U,53478,999,288,-.13647E-1,-.1229092E-1,0
STARLINK-4436,2022-099Q,2022-08-29T16:00:00.999936,15.65616207,.000187,97.6557,0.4679,56.9451,16.0762,0,U,53479,999,288,-.1336E-1,-.1206969E-1,0
STARLINK-4442,2022-099R,2022-08-29T16:00:00.999936,15.65600919,.0001841,97.6561,0.4682,57.5250,13.5672,0,U,53480,999,288,-.13472E-1,-.1215407E-1,0
STARLINK-4302,2022-099S,2022-08-29T16:00:00.999936,15.65630885,.0001934,97.6557,0.4681,51.7184,22.5864,0,U,53481,999,288,-.13358E-1,-.1207475E-1,0
STARLINK-4360,2022-099T,2022-08-29T16:00:00.999936,15.65622814,.0001997,97.6557,0.4677,47.9263,25.7372,0,U,53482,999,288,-.13349E-1,-.1206416E-1,0
STARLINK-4401,2022-099U,2022-08-29T16:00:00.999936,15.65652142,.0001836,97.6557,0.4680,58.3572,17.8729,0,U,53483,999,288,-.13343E-1,-.1207138E-1,0
STARLINK-4426,2022-099V,2022-08-29T16:00:00.999936,15.65637942,.0001608,97.6556,0.4678,95.0992,339.8472,0,U,53484,999,288,-.13347E-1,-.1206749E-1,0
STARLINK-4430,2022-099W,2022-08-29T16:00:00.999936,15.65666011,.0001985,97.6557,0.4682,48.6970,28.8165,0,U,53485,999,288,-.13329E-1,-.1206665E-1,0
STARLINK-4431,2022-099X,2022-08-29T16:00:00.999936,15.65644808,.00018,97.6557,0.4680,60.7579,14.8306,0,U,53486,999,288,-.13344E-1,-.1206884E-1,0
STARLINK-4432,2022-099Y,2022-08-29T16:00:00.999936,15.65692200,.0001891,97.6557,0.4689,52.4872,26.3026,0,U,53487,999,288,-.13497E-1,-.1221488E-1,0
STARLINK-4421,2022-099Z,2022-08-29T16:00:00.999936,15.65668700,.0001791,97.6558,0.4688,58.7312,18.1351,0,U,53488,999,288,-.13474E-1,-.1218532E-1,0
STARLINK-4392,2022-099AA,2022-08-29T16:00:00.999936,15.65737525,.0001815,97.6558,0.4694,56.1717,23.8859,0,U,53489,999,288,-.13986E-1,-.1263245E-1,0
STARLINK-4387,2022-099AB,2022-08-29T16:00:00.999936,15.65684215,.0001859,97.6559,0.4687,56.9986,21.1501,0,U,53490,999,288,-.13485E-1,-.1220142E-1,0
STARLINK-4450,2022-099AC,2022-08-29T16:00:00.999936,15.65716159,.0001831,97.6560,0.4691,57.5209,23.8364,0,U,53491,999,288,-.13415E-1,-.1215824E-1,0
STARLINK-4451,2022-099AD,2022-08-29T16:00:00.999936,15.65706205,.0001914,97.6559,0.4689,54.7439,24.6845,0,U,53492,999,288,-.13612E-1,-.1231491E-1,0
STARLINK-4361,2022-099AE,2022-08-29T16:00:00.999936,15.65747535,.0001646,97.6558,0.4690,67.5253,15.1044,0,U,53493,999,288,-.13655E-1,-.123672E-1,0
STARLINK-4340,2022-099AF,2022-08-29T16:00:00.999936,15.65723473,.0001923,97.6557,0.4689,52.9520,27.7562,0,U,53494,999,288,-.13632E-1,-.1233894E-1,0
STARLINK-4429,2022-099AG,2022-08-29T16:00:00.999936,15.65782608,.0001798,97.6557,0.4697,61.7321,22.1706,0,U,53495,999,289,-.13997E-1,-.1266185E-1,0
STARLINK-4465,2022-099AH,2022-08-29T16:00:00.999936,15.65769173,.0001719,97.6559,0.4692,69.6231,12.3527,0,U,53496,999,288,-.14132E-1,-.1276475E-1,0
STARLINK-4453,2022-099AJ,2022-08-29T16:00:00.999936,15.65771845,.0001881,97.6557,0.4694,54.5131,30.6831,0,U,53497,999,289,-.13595E-1,-.1233015E-1,0
STARLINK-4439,2022-099AK,2022-08-29T16:00:00.999936,15.65746288,.0001795,97.6558,0.4692,56.2579,27.0181,0,U,53498,999,288,-.13542E-1,-.1227513E-1,0
STARLINK-4454,2022-099AL,2022-08-29T16:00:00.999936,15.65776505,.0001818,97.6558,0.4697,55.9435,29.8945,0,U,53499,999,288,-.13551E-1,-.1229601E-1,0
STARLINK-4455,2022-099AM,2022-08-29T16:00:00.999936,15.65758429,.0001785,97.6559,0.4692,58.6420,25.9166,0,U,53500,999,289,-.135E-1,-.1224617E-1,0
STARLINK-4434,2022-099AN,2022-08-29T16:00:00.999936,15.65804423,.0001868,97.6558,0.4700,54.4262,33.3300,0,U,53501,999,288,-.1364E-1,-.1238139E-1,0
STARLINK-4435,2022-099AP,2022-08-29T16:00:00.999936,15.65785227,.0001783,97.6557,0.4695,62.8149,23.6627,0,U,53502,999,288,-.1357E-1,-.1231526E-1,0
